[{"OBJECT_NAME":"STARLINK-34222","OBJECT_ID":"2025-113X","EPOCH":"2026-03-09T10:35:20.123232","MEAN_MOTION":15.30196643,"ECCENTRICITY":0.00013369,"INCLINATION":53.1598,"RA_OF_ASC_NODE":92.5258,"ARG_OF_PERICENTER":80.5572,"MEAN_ANOMALY":279.558,"EPHEMERIS_TYPE":0,"CLASSIFICATION_TYPE":"U","NORAD_CAT_ID":64191,"ELEMENT_SET_NO":999,"REV_AT_EPOCH":4498,"BSTAR":0.00093844969,"MEAN_MOTION_DOT":0.00027535,"MEAN_MOTION_DDOT":0},{"OBJECT_NAME":"COSMOS 1869","OBJECT_ID":"1987-062A","EPOCH":"2026-03-09T20:30:29.271744","MEAN_MOTION":15.35392408,"ECCENTRICITY":0.00185772,"INCLINATION":82.5127,"RA_OF_ASC_NODE":201.6716,"ARG_OF_PERICENTER":61.4986,"MEAN_ANOMALY":298.8125,"EPHEMERIS_TYPE":0,"CLASSIFICATION_TYPE":"U","NORAD_CAT_ID":18214,"ELEMENT_SET_NO":999,"REV_AT_EPOCH":8931,"BSTAR":0.00042037944,"MEAN_MOTION_DOT":0.00014573,"MEAN_MOTION_DDOT":0}]
